ONEWEB-0269             
1 48987U 21060W   24041.92038490  .00000028  00000+0  40829-4 0  9997
2 48987  87.9054  39.4066 0001811  90.6064 269.5275 13.16596308126822
ONEWEB-0270             
1 48988U 21060X   24041.93781503 -.00000019  00000+0 -82200-4 0  9990
2 48988  87.9049  39.3914 0002260  73.5806 286.5573 13.16596193126867
ONEWEB-0271             
1 48989U 21060Y   24041.92514735  .00000021  00000+0  20338-4 0  9996
2 48989  87.9051  39.3689 0002237  83.9427 276.1958 13.16593507126866
ONEWEB-0272             
1 48990U 21060Z   24041.94731474 -.00000056  00000+0 -17994-3 0  9994
2 48990  87.9050  39.3915 0002161  85.6473 274.4905 13.16593212126816
ONEWEB-0273             
1 48991U 21060AA  24041.89348852  .00000084  00000+0  18554-3 0  9995
2 48991  87.9049  39.3898 0002000  82.2870 277.8488 13.16594155126787
ONEWEB-0274             
1 48992U 21060AB  24041.91881518  .00000035  00000+0  56979-4 0  9990
2 48992  87.9059  39.3901 0002335  98.4245 261.7151 13.16593944126829
ONEWEB-0275             
1 48993U 21060AC  24041.90773453  .00000090  00000+0  20213-3 0  9990
2 48993  87.9051  39.3840 0001981  84.1081 276.0275 13.16593298126750
ONEWEB-0276             
1 48994U 21060AD  24041.94099272  .00002629  00000+0  68420-2 0  9996
2 48994  87.9056  39.3739 0002029  83.3401 276.7961 13.16584857126776
ONEWEB-0277             
1 48995U 21060AE  24041.95365141 -.00000016  00000+0 -75819-4 0  9991
2 48995  87.9048  39.4091 0002367  79.4750 280.6648 13.16593949126765
ONEWEB-0278             
1 48996U 21060AF  24041.94413844 -.00000056  00000+0 -17944-3 0  9993
2 48996  87.9050  39.3693 0001490  82.3019 277.8281 13.16595517126891
ONEWEB-0279             
1 48997U 21060AG  24041.95207983 -.00000028  00000+0 -10569-3 0  9995
2 48997  87.9049  39.3658 0002306  83.9252 276.2142 13.16597738126823
ONEWEB-0280             
1 48998U 21060AH  24041.89032104  .00000090  00000+0  20309-3 0  9990
2 48998  87.9050  39.3781 0002491  82.9809 277.1605 13.16594554126754
ONEWEB-0281             
1 48999U 21060AJ  24041.89665676  .00000382  00000+0  96531-3 0  9991
2 48999  87.9049  39.3800 0001966  95.0791 265.0565 13.16592743126823
ONEWEB-0282             
1 49000U 21060AK  24041.92673269  .00000009  00000+0 -10359-4 0  9998
2 49000  87.9050  39.3907 0002056  77.4199 282.7162 13.16595085126803
ONEWEB-0283             
1 49001U 21060AL  24041.91565408  .00000095  00000+0  21420-3 0  9997
2 49001  87.9050  39.4005 0002170  84.7920 275.3459 13.16596529126816
ONEWEB-0284             
1 49002U 21060AM  24041.90931225  .00000116  00000+0  26919-3 0  9993
2 49002  87.9044  39.3930 0001902  79.9143 280.2203 13.16593689126794
ONEWEB-0285             
1 49075U 21075A   24041.85053385  .00000722  00000+0  19714-2 0  9992
2 49075  87.9041 161.2587 0001561  99.5799 260.5506 13.12441655122750
ONEWEB-0286             
1 49076U 21075B   24041.82178966 -.00000348  00000+0 -10023-2 0  9993
2 49076  87.9038 161.2709 0001476 121.3998 238.7275 13.12443243122107
ONEWEB-0287             
1 49077U 21075C   24041.92376489  .00000018  00000+0  14048-4 0  9990
2 49077  87.9245 176.3551 0001117 101.2275 258.8982 13.17650101120730
ONEWEB-0288             
1 49078U 21075D   24041.88215266 -.00000184  00000+0 -54816-3 0  9993
2 49078  87.9036 161.2628 0001376 103.5984 256.5297 13.12442099122732
ONEWEB-0289             
1 49079U 21075E   24041.87630021  .00000040  00000+0  70252-4 0  9995
2 49079  87.9246 176.3901 0001778  99.1058 261.0275 13.17647544121301
ONEWEB-0290             
1 49080U 21075F   24041.85889012 -.00000122  00000+0 -34826-3 0  9990
2 49080  87.9245 176.3568 0001243  87.6600 272.4674 13.17647784120712
ONEWEB-0291             
1 49081U 21075G   24041.91901458  .00000060  00000+0  12074-3 0  9997
2 49081  87.9240 176.3721 0001222  99.5448 260.5822 13.17651388120716
ONEWEB-0293             
1 49082U 21075H   24041.86837961 -.00000234  00000+0 -63519-3 0  9994
2 49082  87.9245 176.3894 0001356  96.2782 263.8504 13.17648280120738
ONEWEB-0294             
1 49083U 21075J   24041.81226681 -.00000346  00000+0 -99842-3 0  9993
2 49083  87.9037 161.2755 0000999  84.8879 275.2364 13.12443623122113
ONEWEB-0295             
1 49084U 21075K   24041.86997751  .00000053  00000+0  10427-3 0  9997
2 49084  87.9247 176.3645 0001086 108.3217 251.8033 13.17650222120692
ONEWEB-0296             
1 49085U 21075L   24041.87103594  .00000200  00000+0  52156-3 0  9992
2 49085  87.9040 161.2629 0000836 118.2669 241.8544 13.12441456122120
ONEWEB-0297             
1 49086U 21075M   24041.82655377 -.00000291  00000+0 -84344-3 0  9995
2 49086  87.9049 161.2691 0001712 109.4135 250.7179 13.12443509122723
ONEWEB-0298             
1 49087U 21075N   24041.87312514 -.00000176  00000+0 -48693-3 0  9993
2 49087  87.9246 176.3836 0001393 110.0775 250.0507 13.17650500120726
ONEWEB-0299             
1 49088U 21075P   24041.87470947  .00000046  00000+0  85543-4 0  9999
2 49088  87.9241 176.3582 0001332 110.9670 249.1604 13.17650869120709
ONEWEB-0300             
1 49089U 21075Q   24041.89326432 -.00000402  00000+0 -11531-2 0  9993
2 49089  87.9038 161.2574 0001778 111.7304 248.4014 13.12442458122757
ONEWEB-0301             
1 49090U 21075R   24041.87738740 -.00000003  00000+0 -44795-4 0  9999
2 49090  87.9039 161.2628 0001915 103.8477 256.2865 13.12441655122115
ONEWEB-0302             
1 49091U 21075S   24041.86467923  .00000345  00000+0  92385-3 0  9995
2 49091  87.9039 161.2626 0001349 108.8169 251.3106 13.12443600122091
ONEWEB-0304             
1 49092U 21075T   24041.92534841 -.00000012  00000+0 -65081-4 0  9994
2 49092  87.9245 176.3591 0001192 105.3234 254.8029 13.17650715120687
ONEWEB-0305             
1 49093U 21075U   24041.91742550  .00000062  00000+0  12547-3 0  9993
2 49093  87.9243 176.3513 0001208 119.4049 240.7203 13.17647515120714
ONEWEB-0308             
1 49094U 21075V   24041.85833318  .00000489  00000+0  13233-2 0  9995
2 49094  87.9038 161.2649 0001709 106.1262 254.0055 13.12442202122105
ONEWEB-0309             
1 49095U 21075W   24041.92218195 -.00000011  00000+0 -61602-4 0  9992
2 49095  87.9247 176.3506 0001112  79.7210 280.4046 13.17649912120689
ONEWEB-0310             
1 49096U 21075X   24041.87262526  .00000136  00000+0  34264-3 0  9993
2 49096  87.9048 161.2578 0001500  97.0381 263.0918 13.12441666123739
ONEWEB-0311             
1 49097U 21075Y   24041.92849795  .00000044  00000+0  80301-4 0  9991
2 49097  87.9244 176.3496 0001315 118.8165 241.3098 13.17647653120734
ONEWEB-0312             
1 49098U 21075Z   24041.86680553  .00000004  00000+0 -21816-4 0  9993
2 49098  87.9247 176.3944 0001015 101.3337 258.7909 13.17648071121684
ONEWEB-0313             
1 49099U 21075AA  24041.92060144  .00000006  00000+0 -17830-4 0  9992
2 49099  87.9247 176.3858 0001151 105.1858 254.9400 13.17650027120700
ONEWEB-0314             
1 49100U 21075AB  24041.91425747  .00000017  00000+0  10251-4 0  9999
2 49100  87.9244 176.3503 0000992 111.2568 248.8669 13.17650604120671
ONEWEB-0315             
1 49101U 21075AC  24041.84722470  .00000354  00000+0  94757-3 0  9991
2 49101  87.9038 161.2618 0001669 107.4020 252.7291 13.12445433122714
ONEWEB-0316             
1 49102U 21075AD  24041.83090857  .00000014  00000+0  19309-5 0  9993
2 49102  87.9249 146.0836 0001736 117.9677 242.1631 13.18685096124216
ONEWEB-0317             
1 49103U 21075AE  24041.84085851  .00000183  00000+0  47204-3 0  9993
2 49103  87.9041 161.2707 0001578  97.6392 262.4916 13.12443391122735
ONEWEB-0318             
1 49104U 21075AF  24041.82774397  .00000037  00000+0  61250-4 0  9998
2 49104  87.9245 146.0812 0001701 119.1486 240.9816 13.18687401124170
ONEWEB-0319             
1 49105U 21075AG  24041.85414472  .00000041  00000+0  71278-4 0  9993
2 49105  87.9245 176.3903 0001313 126.7949 233.3304 13.17650777120703
ONEWEB-0323             
1 49106U 21075AH  24041.83132331 -.00000145  00000+0 -43753-3 0  9996
2 49106  87.9040 161.2606 0001507 114.1309 245.9977 13.12443120122092
ONEWEB-0329             
1 49107U 21075AJ  24041.86205954  .00000021  00000+0  21903-4 0  9997
2 49107  87.9247 176.3925 0001313 104.4186 255.7091 13.17654442120688
ONEWEB-0330             
1 49108U 21075AK  24041.86364791  .00000009  00000+0 -96588-5 0  9992
2 49108  87.9246 176.3923 0001247 101.4552 258.6720 13.17649744120721
ONEWEB-0292             
1 49186U 21083A   24041.78546130  .00000211  00000+0  54189-3 0  9990
2 49186  87.9005 130.9280 0001818 109.2612 250.8714 13.13470366118372
ONEWEB-0303             
1 49187U 21083B   24041.82458461  .00000025  00000+0  30805-4 0  9998
2 49187  87.9245 146.0803 0001732 115.7617 244.3694 13.18685184116981
ONEWEB-0306             
1 49188U 21083C   24041.81509836  .00000055  00000+0  10628-3 0  9994
2 49188  87.9244 146.0706 0001908 113.2245 246.9088 13.18684833117029
ONEWEB-0307             
1 49189U 21083D   24041.78070051  .00000285  00000+0  74625-3 0  9995
2 49189  87.9006 130.9280 0001739 105.1364 254.9957 13.13470114118372
ONEWEB-0320             
1 49190U 21083E   24041.82142440  .00000066  00000+0  13508-3 0  9994
2 49190  87.9247 146.0918 0001669 102.5414 257.5904 13.18687199116980
ONEWEB-0321             
1 49191U 21083F   24041.63406791 -.00000045  00000+0 -14358-3 0  9999
2 49191  87.9137  85.1280 0002208  89.4578 270.6808 13.20771333123634
ONEWEB-0322             
1 49192U 21083G   24041.77595024  .00000354  00000+0  93320-3 0  9990
2 49192  87.9006 130.9173 0001900  89.4327 270.7020 13.13469267118363
ONEWEB-0324             
1 49193U 21083H   24041.80719648  .00000002  00000+0 -27890-4 0  9996
2 49193  87.9244 146.0776 0001357 104.3998 255.7284 13.18686913117001
ONEWEB-0325             
1 49194U 21083J   24041.81195517  .00000499  00000+0  12337-2 0  9998
2 49194  87.9246 146.0893 0001713 104.5326 255.5996 13.18685591117017
